start=new Date('2021-12-26T00:00:00.000Z').valueOf();
sats=[{"TIME_SYSTEM":"UTC","LAUNCH_DATE":"2021-05-15","REF_FRAME":"TEME","MEAN_ELEMENT_THEORY":"SGP4","ELEMENT_SET_NO":"999","APOAPSIS":"548.848","EPHEMERIS_TYPE":"0","MEAN_MOTION_DDOT":"0.0000000000000","PERIOD":"95.593","SITE":"AFETR","OBJECT_TYPE":"PAYLOAD","TLE_LINE2":"2 48574  53.0460 151.5108 0002301  92.1177  40.5586 15.06386762  3591","OBJECT_NAME":"STARLINK-2225","COUNTRY_CODE":"US","MEAN_MOTION_DOT":"0.00039224","CLASSIFICATION_TYPE":"U","NORAD_CAT_ID":"48574","CENTER_NAME":"EARTH","MEAN_ANOMALY":"40.5586","SEMIMAJOR_AXIS":"6925.389","MEAN_MOTION":"15.06386762","RA_OF_ASC_NODE":"151.5108","ARG_OF_PERICENTER":"92.1177","ECCENTRICITY":"0.00023010","REV_AT_EPOCH":"359","TLE_LINE1":"1 48574U 21041X   21359.91667824  .00039224  00000-0  26384-2 0  9994","INCLINATION":"53.0460","RCS_SIZE":"LARGE","OBJECT_ID":"2021-041X","BSTAR":"0.00263840000000","GP_ID":"192458377","PERIAPSIS":"545.661","EPOCH":"2021-12-25T22:00:00.999936","DECAY_DATE":null,"FILE":"3250974"},{"SITE":"AFETR","PERIOD":"95.420","MEAN_MOTION_DDOT":"0.0000000000000","OBJECT_NAME":"STARLINK-2227","COUNTRY_CODE":"US","TLE_LINE2":"2 48575  53.0543 141.4799 0001739  49.1904 112.4698 15.09110174  3646","OBJECT_TYPE":"PAYLOAD","CENTER_NAME":"EARTH","NORAD_CAT_ID":"48575","MEAN_ANOMALY":"112.4698","CLASSIFICATION_TYPE":"U","MEAN_MOTION_DOT":"-0.01057304","LAUNCH_DATE":"2021-05-15","TIME_SYSTEM":"UTC","MEAN_ELEMENT_THEORY":"SGP4","REF_FRAME":"TEME","EPHEMERIS_TYPE":"0","APOAPSIS":"540.123","ELEMENT_SET_NO":"999","RCS_SIZE":"LARGE","INCLINATION":"53.0543","BSTAR":"-0.07115900000000","OBJECT_ID":"2021-041Y","PERIAPSIS":"537.717","GP_ID":"192459086","FILE":"3250974","EPOCH":"2021-12-25T22:00:00.999936","DECAY_DATE":null,"SEMIMAJOR_AXIS":"6917.055","RA_OF_ASC_NODE":"141.4799","MEAN_MOTION":"15.09110174","ECCENTRICITY":"0.00017390","ARG_OF_PERICENTER":"49.1904","TLE_LINE1":"1 48575U 21041Y   21359.91667824 -.01057304  00000-0 -71159-1 0  9996","REV_AT_EPOCH":"364"},{"BSTAR":"0.00272330000000","OBJECT_ID":"2021-041Z","RCS_SIZE":"LARGE","INCLINATION":"53.0545","FILE":"3250974","EPOCH":"2021-12-25T22:00:00.999936","DECAY_DATE":null,"PERIAPSIS":"545.479","GP_ID":"192459322","ECCENTRICITY":"0.00026140","ARG_OF_PERICENTER":"44.1743","MEAN_MOTION":"15.06375343","SEMIMAJOR_AXIS":"6925.424","RA_OF_ASC_NODE":"156.3946","TLE_LINE1":"1 48576U 21041Z   21359.91667824  .00040490  00000-0  27233-2 0  9997","REV_AT_EPOCH":"359","SITE":"AFETR","PERIOD":"95.594","MEAN_MOTION_DDOT":"0.0000000000000","MEAN_ANOMALY":"315.9144","NORAD_CAT_ID":"48576","CENTER_NAME":"EARTH","CLASSIFICATION_TYPE":"U","MEAN_MOTION_DOT":"0.00040490","COUNTRY_CODE":"US","OBJECT_NAME":"STARLINK-2228","TLE_LINE2":"2 48576  53.0545 156.3946 0002614  44.1743 315.9144 15.06375343  3595","OBJECT_TYPE":"PAYLOAD","LAUNCH_DATE":"2021-05-15","TIME_SYSTEM":"UTC","EPHEMERIS_TYPE":"0","APOAPSIS":"549.099","ELEMENT_SET_NO":"999","MEAN_ELEMENT_THEORY":"SGP4","REF_FRAME":"TEME"},{"MEAN_MOTION_DDOT":"0.0000000000000","PERIOD":"95.593","SITE":"AFETR","OBJECT_TYPE":"PAYLOAD","TLE_LINE2":"2 48577  53.0529 181.4521 0002569  86.6595 273.4687 15.06393499 33877","COUNTRY_CODE":"US","OBJECT_NAME":"STARLINK-2231","MEAN_MOTION_DOT":"0.00000868","CLASSIFICATION_TYPE":"U","NORAD_CAT_ID":"48577","MEAN_ANOMALY":"273.4687","CENTER_NAME":"EARTH","TIME_SYSTEM":"UTC","LAUNCH_DATE":"2021-05-15","REF_FRAME":"TEME","MEAN_ELEMENT_THEORY":"SGP4","ELEMENT_SET_NO":"999","EPHEMERIS_TYPE":"0","APOAPSIS":"549.013","INCLINATION":"53.0529","RCS_SIZE":"LARGE","OBJECT_ID":"2021-041AA","BSTAR":"0.00007722100000","GP_ID":"192460026","PERIAPSIS":"545.454","EPOCH":"2021-12-25T22:10:00.160608","DECAY_DATE":null,"FILE":"3250974","SEMIMAJOR_AXIS":"6925.368","RA_OF_ASC_NODE":"181.4521","MEAN_MOTION":"15.06393499","ARG_OF_PERICENTER":"86.6595","ECCENTRICITY":"0.00025690","REV_AT_EPOCH":"3387","TLE_LINE1":"1 48577U 21041AA  21359.92361297  .00000868  00000-0  77221-4 0  9993"},{"PERIOD":"95.592","MEAN_MOTION_DDOT":"0.0000000000000","SITE":"AFETR","TLE_LINE2":"2 48578  53.0554 181.8347 0002617  83.3053 276.8234 15.06395683 33864","OBJECT_TYPE":"PAYLOAD","COUNTRY_CODE":"US","OBJECT_NAME":"STARLINK-2232","MEAN_MOTION_DOT":"0.00001663","NORAD_CAT_ID":"48578","MEAN_ANOMALY":"276.8234","CENTER_NAME":"EARTH","CLASSIFICATION_TYPE":"U","TIME_SYSTEM":"UTC","LAUNCH_DATE":"2021-05-15","REF_FRAME":"TEME","MEAN_ELEMENT_THEORY":"SGP4","ELEMENT_SET_NO":"999","EPHEMERIS_TYPE":"0","APOAPSIS":"549.039","RCS_SIZE":"LARGE","INCLINATION":"53.0554","OBJECT_ID":"2021-041AB","BSTAR":"0.00013057000000","GP_ID":"192458850","PERIAPSIS":"545.414","FILE":"3250974","DECAY_DATE":null,"EPOCH":"2021-12-25T20:06:33.887808","SEMIMAJOR_AXIS":"6925.362","MEAN_MOTION":"15.06395683","RA_OF_ASC_NODE":"181.8347","ARG_OF_PERICENTER":"83.3053","ECCENTRICITY":"0.00026170","REV_AT_EPOCH":"3386","TLE_LINE1":"1 48578U 21041AB  21359.83789222  .00001663  00000-0  13057-3 0  9996"},{"ECCENTRICITY":"0.00024590","ARG_OF_PERICENTER":"88.8266","SEMIMAJOR_AXIS":"6925.355","RA_OF_ASC_NODE":"182.1044","MEAN_MOTION":"15.06397870","TLE_LINE1":"1 48579U 21041AC  21359.77985180  .00001629  00000-0  12826-3 0  9996","REV_AT_EPOCH":"3385","BSTAR":"0.00012826000000","OBJECT_ID":"2021-041AC","RCS_SIZE":"LARGE","INCLINATION":"53.0552","FILE":"3250974","EPOCH":"2021-12-25T18:42:59.195520","DECAY_DATE":null,"PERIAPSIS":"545.517","GP_ID":"192458613","LAUNCH_DATE":"2021-05-15","TIME_SYSTEM":"UTC","EPHEMERIS_TYPE":"0","APOAPSIS":"548.923","ELEMENT_SET_NO":"999","MEAN_ELEMENT_THEORY":"SGP4","REF_FRAME":"TEME","SITE":"AFETR","PERIOD":"95.592","MEAN_MOTION_DDOT":"0.0000000000000","NORAD_CAT_ID":"48579","MEAN_ANOMALY":"271.3005","CENTER_NAME":"EARTH","CLASSIFICATION_TYPE":"U","MEAN_MOTION_DOT":"0.00001629","OBJECT_NAME":"STARLINK-2233","COUNTRY_CODE":"US","TLE_LINE2":"2 48579  53.0552 182.1044 0002459  88.8266 271.3005 15.06397870 33856","OBJECT_TYPE":"PAYLOAD"},{"SITE":"AFETR","PERIOD":"95.594","MEAN_MOTION_DDOT":"0.0000000000000","COUNTRY_CODE":"US","OBJECT_NAME":"STARLINK-2234","TLE_LINE2":"2 48580  53.0541 156.4860 0003124  95.6717 109.5457 15.06367362  3586","OBJECT_TYPE":"PAYLOAD","MEAN_ANOMALY":"109.5457","NORAD_CAT_ID":"48580","CENTER_NAME":"EARTH","CLASSIFICATION_TYPE":"U","MEAN_MOTION_DOT":"0.00040848","LAUNCH_DATE":"2021-05-15","TIME_SYSTEM":"UTC","MEAN_ELEMENT_THEORY":"SGP4","REF_FRAME":"TEME","EPHEMERIS_TYPE":"0","APOAPSIS":"549.477","ELEMENT_SET_NO":"999","RCS_SIZE":"LARGE","INCLINATION":"53.0541","BSTAR":"0.00274760000000","OBJECT_ID":"2021-041AD","PERIAPSIS":"545.150","GP_ID":"192459792","FILE":"3250974","EPOCH":"2021-12-25T22:00:00.999936","DECAY_DATE":null,"RA_OF_ASC_NODE":"156.4860","SEMIMAJOR_AXIS":"6925.449","MEAN_MOTION":"15.06367362","ECCENTRICITY":"0.00031240","ARG_OF_PERICENTER":"95.6717","TLE_LINE1":"1 48580U 21041AD  21359.91667824  .00040848  00000-0  27476-2 0  9998","REV_AT_EPOCH":"358"},{"OBJECT_TYPE":"PAYLOAD","TLE_LINE2":"2 48581  53.0625 146.4345 0001386  90.4731 329.7750 15.06379375  3594","COUNTRY_CODE":"US","OBJECT_NAME":"STARLINK-2235","MEAN_MOTION_DOT":"0.00029743","CLASSIFICATION_TYPE":"U","NORAD_CAT_ID":"48581","MEAN_ANOMALY":"329.7750","CENTER_NAME":"EARTH","MEAN_MOTION_DDOT":"0.0000000000000","PERIOD":"95.593","SITE":"AFETR","REF_FRAME":"TEME","MEAN_ELEMENT_THEORY":"SGP4","ELEMENT_SET_NO":"999","EPHEMERIS_TYPE":"0","APOAPSIS":"548.237","TIME_SYSTEM":"UTC","LAUNCH_DATE":"2021-05-15","GP_ID":"192459556","PERIAPSIS":"546.317","DECAY_DATE":null,"EPOCH":"2021-12-25T22:00:00.999936","FILE":"3250974","INCLINATION":"53.0625","RCS_SIZE":"LARGE","OBJECT_ID":"2021-041AE","BSTAR":"0.00200840000000","REV_AT_EPOCH":"359","TLE_LINE1":"1 48581U 21041AE  21359.91667824  .00029743  00000-0  20084-2 0  9998","RA_OF_ASC_NODE":"146.4345","SEMIMAJOR_AXIS":"6925.412","MEAN_MOTION":"15.06379375","ARG_OF_PERICENTER":"90.4731","ECCENTRICITY":"0.00013860"},{"PERIOD":"95.593","MEAN_MOTION_DDOT":"0.0000000000000","SITE":"AFETR","MEAN_MOTION_DOT":"0.00029327","NORAD_CAT_ID":"48582","MEAN_ANOMALY":"162.2415","CENTER_NAME":"EARTH","CLASSIFICATION_TYPE":"U","TLE_LINE2":"2 48582  53.0520 146.4784 0001948  78.0378 162.2415 15.06383433  3586","OBJECT_TYPE":"PAYLOAD","COUNTRY_CODE":"US","OBJECT_NAME":"STARLINK-2236","TIME_SYSTEM":"UTC","LAUNCH_DATE":"2021-05-15","ELEMENT_SET_NO":"999","EPHEMERIS_TYPE":"0","APOAPSIS":"548.613","REF_FRAME":"TEME","MEAN_ELEMENT_THEORY":"SGP4","OBJECT_ID":"2021-041AF","BSTAR":"0.00198040000000","RCS_SIZE":"LARGE","INCLINATION":"53.0520","FILE":"3250974","EPOCH":"2021-12-25T22:00:00.999936","DECAY_DATE":null,"GP_ID":"192458378","PERIAPSIS":"545.915","ARG_OF_PERICENTER":"78.0378","ECCENTRICITY":"0.00019480","MEAN_MOTION":"15.06383433","SEMIMAJOR_AXIS":"6925.399","RA_OF_ASC_NODE":"146.4784","REV_AT_EPOCH":"358","TLE_LINE1":"1 48582U 21041AF  21359.91667824  .00029327  00000-0  19804-2 0  9995"},{"MEAN_ELEMENT_THEORY":"SGP4","REF_FRAME":"TEME","EPHEMERIS_TYPE":"0","APOAPSIS":"549.009","ELEMENT_SET_NO":"999","LAUNCH_DATE":"2021-05-15","TIME_SYSTEM":"UTC","OBJECT_NAME":"STARLINK-2237","COUNTRY_CODE":"US","OBJECT_TYPE":"PAYLOAD","TLE_LINE2":"2 48583  53.0546 191.8966 0002559  80.5152 279.6126 15.06392474 33724","CLASSIFICATION_TYPE":"U","CENTER_NAME":"EARTH","NORAD_CAT_ID":"48583","MEAN_ANOMALY":"279.6126","MEAN_MOTION_DOT":"0.00002092","SITE":"AFETR","MEAN_MOTION_DDOT":"0.0000000000000","PERIOD":"95.593","TLE_LINE1":"1 48583U 21041AG  21359.82686342  .00002092  00000-0  15936-3 0  9995","REV_AT_EPOCH":"3372","SEMIMAJOR_AXIS":"6925.372","RA_OF_ASC_NODE":"191.8966","MEAN_MOTION":"15.06392474","ECCENTRICITY":"0.00025590","ARG_OF_PERICENTER":"80.5152","PERIAPSIS":"545.464","GP_ID":"192459087","DECAY_DATE":null,"EPOCH":"2021-12-25T19:50:40.999488","FILE":"3250974","INCLINATION":"53.0546","RCS_SIZE":"LARGE","BSTAR":"0.00015936000000","OBJECT_ID":"2021-041AG"}];
